{
    "links": {
        "self": "http://www.neowsapp.com/rest/v1/neo/3467708?api_key=iIulBulltgU6a56xZRHN4H3l9WmuAYTsLGpBGhQ2"
    },
    "id": "3467708",
    "neo_reference_id": "3467708",
    "name": "(2009 SV19)",
    "designation": "2009 SV19",
    "nasa_jpl_url": "http://ssd.jpl.nasa.gov/sbdb.cgi?sstr=3467708",
    "absolute_magnitude_h": 26.0,
    "estimated_diameter": {
        "kilometers": {
            "estimated_diameter_min": 0.0167708462,
            "estimated_diameter_max": 0.0375007522
        },
        "meters": {
            "estimated_diameter_min": 16.7708462163,
            "estimated_diameter_max": 37.5007521798
        },
        "miles": {
            "estimated_diameter_min": 0.0104209175,
            "estimated_diameter_max": 0.0233018799
        },
        "feet": {
            "estimated_diameter_min": 55.0224631002,
            "estimated_diameter_max": 123.0339677816
        }
    },
    "is_potentially_hazardous_asteroid": false,
    "close_approach_data": [
        {
            "close_approach_date": "2009-09-27",
            "close_approach_date_full": "2009-Sep-27 08:52",
            "epoch_date_close_approach": 1254041520000,
            "relative_velocity": {
                "kilometers_per_second": "7.0700962346",
                "kilometers_per_hour": "25452.3464445122",
                "miles_per_hour": "15815.098267147"
            },
            "miss_distance": {
                "astronomical": "0.038836803",
                "lunar": "15.107516367",
                "kilometers": "5809903.00640961",
                "miles": "3610106.325328218"
            },
            "orbiting_body": "Earth"
        },
        {
            "close_approach_date": "2094-09-24",
            "close_approach_date_full": "2094-Sep-24 04:59",
            "epoch_date_close_approach": 3936142740000,
            "relative_velocity": {
                "kilometers_per_second": "7.0724758237",
                "kilometers_per_hour": "25460.9129654072",
                "miles_per_hour": "15820.4211700887"
            },
            "miss_distance": {
                "astronomical": "0.0394276604",
                "lunar": "15.3373598956",
                "kilometers": "5898294.014923348",
                "miles": "3665029.9511762824"
            },
            "orbiting_body": "Earth"
        }
    ],
    "orbital_data": {
        "orbit_id": "8",
        "orbit_determination_date": "2017-04-06 08:59:52",
        "first_observation_date": "2009-09-22",
        "last_observation_date": "2009-09-30",
        "data_arc_in_days": 8,
        "observations_used": 17,
        "orbit_uncertainty": "8",
        "minimum_orbit_intersection": ".0374749",
        "jupiter_tisserand_invariant": "3.462",
        "epoch_osculation": "2455098.5",
        "eccentricity": ".5285443746462667",
        "semi_major_axis": "2.203244141507736",
        "inclination": "5.237491057025832",
        "ascending_node_longitude": "357.3819453935615",
        "orbital_period": "1194.517076970617",
        "perihelion_distance": "1.038731844541479",
        "perihelion_argument": "8.854880188362879",
        "aphelion_distance": "3.367756438473994",
        "perihelion_time": "2455103.890604209958",
        "mean_anomaly": "358.3753957536493",
        "mean_motion": ".3013770225143925",
        "equinox": "J2000",
        "orbit_class": {
            "orbit_class_type": "AMO",
            "orbit_class_description": "Near-Earth asteroid orbits similar to that of 1221 Amor",
            "orbit_class_range": "1.017 AU < q (perihelion) < 1.3 AU"
        }
    },
    "is_sentry_object": false
}